{
  "type": "FeatureCollection",
  "features": [
    {
      "type": "Feature",
      "properties": {
        "norad_id": 43057,
        "name": "GSAT0217 (GALILEO 21)",
        "group": "gnss",
        "lat": -10.42893015390773,
        "lon": 54.10994865959138,
        "alt_km": 23230.93468088526,
        "timestamp": "2025-12-09T04:51:47.738217+00:00",
        "meta_object_name": "GSAT0217 (GALILEO 21)",
        "meta_object_id": "2017-079C",
        "meta_epoch": "2025-12-08T07:14:55.853376",
        "meta_mean_motion": 1.70473894,
        "meta_eccentricity": 0.0002795,
        "meta_inclination": 55.1299,
        "meta_ra_of_asc_node": 226.758,
        "meta_arg_of_pericenter": 342.2851,
        "meta_mean_anomaly": 17.7961,
        "meta_ephemeris_type": 0,
        "meta_classification_type": "U",
        "meta_norad_cat_id": 43057,
        "meta_element_set_no": 999,
        "meta_rev_at_epoch": 4973,
        "meta_bstar": 0,
        "meta_mean_motion_dot": 1.7e-07,
        "meta_mean_motion_ddot": 0,
        "tle_line1": "1 43057U 17079C   25342.30203534  .00000017  00000+0  00000+0 0  9995",
        "tle_line2": "2 43057  55.1299 226.7580 0002795 342.2851  17.7961  1.70473894 49737"
      },
      "geometry": {
        "type": "Point",
        "coordinates": [
          54.10994865959138,
          -10.42893015390773
        ]
      }
    },
    {
      "type": "Feature",
      "properties": {
        "norad_id": 43058,
        "name": "GSAT0218 (GALILEO 22)",
        "group": "gnss",
        "lat": 43.90492830556935,
        "lon": -91.15072942168294,
        "alt_km": 23220.07458586505,
        "timestamp": "2025-12-09T04:51:47.738240+00:00",
        "meta_object_name": "GSAT0218 (GALILEO 22)",
        "meta_object_id": "2017-079D",
        "meta_epoch": "2025-12-06T18:17:46.482720",
        "meta_mean_motion": 1.70473862,
        "meta_eccentricity": 0.00028449,
        "meta_inclination": 55.1307,
        "meta_ra_of_asc_node": 226.7982,
        "meta_arg_of_pericenter": 305.5375,
        "meta_mean_anomaly": 54.5328,
        "meta_ephemeris_type": 0,
        "meta_classification_type": "U",
        "meta_norad_cat_id": 43058,
        "meta_element_set_no": 999,
        "meta_rev_at_epoch": 4973,
        "meta_bstar": 0,
        "meta_mean_motion_dot": 2.9e-07,
        "meta_mean_motion_ddot": 0,
        "tle_line1": "1 43058U 17079D   25340.76234355  .00000029  00000+0  00000+0 0  9992",
        "tle_line2": "2 43058  55.1307 226.7982 0002844 305.5375  54.5328  1.70473862 49733"
      },
      "geometry": {
        "type": "Point",
        "coordinates": [
          -91.15072942168294,
          43.90492830556935
        ]
      }
    },
    {
      "type": "Feature",
      "properties": {
        "norad_id": 43107,
        "name": "BEIDOU-3 M7 (C27)",
        "group": "gnss",
        "lat": -34.91999697500684,
        "lon": -80.94612770083057,
        "alt_km": 21535.280701544823,
        "timestamp": "2025-12-09T04:51:47.738262+00:00",
        "meta_object_name": "BEIDOU-3 M7 (C27)",
        "meta_object_id": "2018-003A",
        "meta_epoch": "2025-12-08T04:41:21.311520",
        "meta_mean_motion": 1.86232319,
        "meta_eccentricity": 0.00027287,
        "meta_inclination": 54.5008,
        "meta_ra_of_asc_node": 308.973,
        "meta_arg_of_pericenter": 69.0594,
        "meta_mean_anomaly": 290.9569,
        "meta_ephemeris_type": 0,
        "meta_classification_type": "U",
        "meta_norad_cat_id": 43107,
        "meta_element_set_no": 999,
        "meta_rev_at_epoch": 5379,
        "meta_bstar": 0,
        "meta_mean_motion_dot": -7.3e-07,
        "meta_mean_motion_ddot": 0,
        "tle_line1": "1 43107U 18003A   25342.19538555 -.00000073  00000+0  00000+0 0  9993",
        "tle_line2": "2 43107  54.5008 308.9730 0002728  69.0594 290.9569  1.86232319 53790"
      },
      "geometry": {
        "type": "Point",
        "coordinates": [
          -80.94612770083057,
          -34.91999697500684
        ]
      }
    },
    {
      "type": "Feature",
      "properties": {
        "norad_id": 43108,
        "name": "BEIDOU-3 M8 (C28)",
        "group": "gnss",
        "lat": -6.284564397001282,
        "lon": -55.60519403707264,
        "alt_km": 21526.1087615984,
        "timestamp": "2025-12-09T04:51:47.738283+00:00",
        "meta_object_name": "BEIDOU-3 M8 (C28)",
        "meta_object_id": "2018-003B",
        "meta_epoch": "2025-12-08T03:21:57.743424",
        "meta_mean_motion": 1.86230794,
        "meta_eccentricity": 0.00047249,
        "meta_inclination": 54.4937,
        "meta_ra_of_asc_node": 308.9576,
        "meta_arg_of_pericenter": 275.4662,
        "meta_mean_anomaly": 84.4669,
        "meta_ephemeris_type": 0,
        "meta_classification_type": "U",
        "meta_norad_cat_id": 43108,
        "meta_element_set_no": 999,
        "meta_rev_at_epoch": 5380,
        "meta_bstar": 0,
        "meta_mean_motion_dot": -7.3e-07,
        "meta_mean_motion_ddot": 0,
        "tle_line1": "1 43108U 18003B   25342.14025166 -.00000073  00000+0  00000+0 0  9998",
        "tle_line2": "2 43108  54.4937 308.9576 0004724 275.4662  84.4669  1.86230794 53800"
      },
      "geometry": {
        "type": "Point",
        "coordinates": [
          -55.60519403707264,
          -6.284564397001282
        ]
      }
    },
    {
      "type": "Feature",
      "properties": {
        "norad_id": 43207,
        "name": "BEIDOU-3 M4 (C22)",
        "group": "gnss",
        "lat": 43.75341375083197,
        "lon": 108.74708105687245,
        "alt_km": 21514.44827488562,
        "timestamp": "2025-12-09T04:51:47.738306+00:00",
        "meta_object_name": "BEIDOU-3 M4 (C22)",
        "meta_object_id": "2018-018A",
        "meta_epoch": "2025-12-06T10:25:28.939872",
        "meta_mean_motion": 1.86230708,
        "meta_eccentricity": 0.0004178,
        "meta_inclination": 56.4806,
        "meta_ra_of_asc_node": 69.5126,
        "meta_arg_of_pericenter": 11.9666,
        "meta_mean_anomaly": 348.0575,
        "meta_ephemeris_type": 0,
        "meta_classification_type": "U",
        "meta_norad_cat_id": 43207,
        "meta_element_set_no": 999,
        "meta_rev_at_epoch": 5315,
        "meta_bstar": 0,
        "meta_mean_motion_dot": -4.5e-07,
        "meta_mean_motion_ddot": 0,
        "tle_line1": "1 43207U 18018A   25340.43436273 -.00000045  00000+0  00000+0 0  9998",
        "tle_line2": "2 43207  56.4806  69.5126 0004178  11.9666 348.0575  1.86230708 53156"
      },
      "geometry": {
        "type": "Point",
        "coordinates": [
          108.74708105687245,
          43.75341375083197
        ]
      }
    },
    {
      "type": "Feature",
      "properties": {
        "norad_id": 43208,
        "name": "BEIDOU-3 M3 (C21)",
        "group": "gnss",
        "lat": 9.47293883631764,
        "lon": 75.77463522792897,
        "alt_km": 21516.540800920095,
        "timestamp": "2025-12-09T04:51:47.738328+00:00",
        "meta_object_name": "BEIDOU-3 M3 (C21)",
        "meta_object_id": "2018-018B",
        "meta_epoch": "2025-12-06T12:01:16.553856",
        "meta_mean_motion": 1.8623091,
        "meta_eccentricity": 0.0006466,
        "meta_inclination": 56.4802,
        "meta_ra_of_asc_node": 69.5146,
        "meta_arg_of_pericenter": 317.243,
        "meta_mean_anomaly": 42.7213,
        "meta_ephemeris_type": 0,
        "meta_classification_type": "U",
        "meta_norad_cat_id": 43208,
        "meta_element_set_no": 999,
        "meta_rev_at_epoch": 5315,
        "meta_bstar": 0,
        "meta_mean_motion_dot": -4.5e-07,
        "meta_mean_motion_ddot": 0,
        "tle_line1": "1 43208U 18018B   25340.50088604 -.00000045  00000+0  00000+0 0  9998",
        "tle_line2": "2 43208  56.4802  69.5146 0006466 317.2430  42.7213  1.86230910 53150"
      },
      "geometry": {
        "type": "Point",
        "coordinates": [
          75.77463522792897,
          9.47293883631764
        ]
      }
    },
    {
      "type": "Feature",
      "properties": {
        "norad_id": 43245,
        "name": "BEIDOU-3 M9 (C29)",
        "group": "gnss",
        "lat": -36.111737821446624,
        "lon": 158.09383036593454,
        "alt_km": 21529.8900194971,
        "timestamp": "2025-12-09T04:51:47.738345+00:00",
        "meta_object_name": "BEIDOU-3 M9 (C29)",
        "meta_object_id": "2018-029A",
        "meta_epoch": "2025-12-07T06:05:41.958240",
        "meta_mean_motion": 1.86227905,
        "meta_eccentricity": 0.0001619,
        "meta_inclination": 54.3706,
        "meta_ra_of_asc_node": 306.6586,
        "meta_arg_of_pericenter": 277.0256,
        "meta_mean_anomaly": 82.9411,
        "meta_ephemeris_type": 0,
        "meta_classification_type": "U",
        "meta_norad_cat_id": 43245,
        "meta_element_set_no": 999,
        "meta_rev_at_epoch": 5232,
        "meta_bstar": 0,
        "meta_mean_motion_dot": -7e-07,
        "meta_mean_motion_ddot": 0,
        "tle_line1": "1 43245U 18029A   25341.25395785 -.00000070  00000+0  00000+0 0  9993",
        "tle_line2": "2 43245  54.3706 306.6586 0001619 277.0256  82.9411  1.86227905 52322"
      },
      "geometry": {
        "type": "Point",
        "coordinates": [
          158.09383036593454,
          -36.111737821446624
        ]
      }
    }
  ]
}